{
  "norad_id": 67289,
  "name": "NASBSAT-1",
  "history": [
    {
      "epoch": "2026-03-28T21:57:36.887328Z",
      "apogee_km": 499.53651344137506,
      "perigee_km": 488.3733498657575,
      "latitude_deg": 8.613460178466843e-05,
      "longitude_deg": 8.337780469709903,
      "height_km": 496.3871661225928,
      "semi_major_axis_km": 6872.091931653566,
      "eccentricity": 0.00081221,
      "inclination_deg": 97.3979,
      "raan_deg": 164.0701,
      "arg_perigee_deg": 276.9047,
      "mean_anomaly_deg": 83.1267,
      "mean_motion_rev_day": 15.23945097
    },
    {
      "epoch": "2026-03-29T04:15:49.290912Z",
      "apogee_km": 499.50280718557315,
      "perigee_km": 488.3233561127463,
      "latitude_deg": 7.518678265135936e-06,
      "longitude_deg": -86.21366422750941,
      "height_km": 496.4452608995814,
      "semi_major_axis_km": 6872.050081649159,
      "eccentricity": 0.0008134,
      "inclination_deg": 97.3979,
      "raan_deg": 164.3292,
      "arg_perigee_deg": 275.8643,
      "mean_anomaly_deg": 84.1667,
      "mean_motion_rev_day": 15.23959018
    }
  ]
}